[{"OBJECT_NAME":"KUIPER-00101","OBJECT_ID":"2025-228A","EPOCH":"2026-03-09T05:20:33.862560","MEAN_MOTION":14.79939717,"ECCENTRICITY":7.84e-5,"INCLINATION":51.8989,"RA_OF_ASC_NODE":2.6437,"ARG_OF_PERICENTER":94.525,"MEAN_ANOMALY":265.5802,"EPHEMERIS_TYPE":0,"CLASSIFICATION_TYPE":"U","NORAD_CAT_ID":65947,"ELEMENT_SET_NO":999,"REV_AT_EPOCH":2316,"BSTAR":0.00043135535,"MEAN_MOTION_DOT":3.069e-5,"MEAN_MOTION_DDOT":0},{"OBJECT_NAME":"COSMOS 220","OBJECT_ID":"1968-040A","EPOCH":"2026-03-09T21:34:53.700096","MEAN_MOTION":14.8069564,"ECCENTRICITY":0.00352383,"INCLINATION":74.0276,"RA_OF_ASC_NODE":17.03,"ARG_OF_PERICENTER":304.0843,"MEAN_ANOMALY":55.699,"EPHEMERIS_TYPE":0,"CLASSIFICATION_TYPE":"U","NORAD_CAT_ID":3229,"ELEMENT_SET_NO":999,"REV_AT_EPOCH":7569,"BSTAR":0.00019482875,"MEAN_MOTION_DOT":1.478e-5,"MEAN_MOTION_DDOT":0}]
